IRIDIUM 116             
1 43072U 17083C   25112.16197891  .00000038  00000+0  66761-5 0  9999
2 43072  86.3955 138.0309 0002446  96.8938 263.2537 14.34217187383827
IRIDIUM 130             
1 43073U 17083D   25111.64188667 -.00000035  00000+0 -19551-4 0  9996
2 43073  86.3969 138.4817 0002147 103.1711 256.9725 14.34216936383694
IRIDIUM 151             
1 43074U 17083E   25112.10489639  .00000368  00000+0  12435-3 0  9992
2 43074  86.3954 138.1023 0002461  97.4075 262.7400 14.34218255383783
IRIDIUM 134             
1 43075U 17083F   25112.42202789 -.00000012  00000+0 -11435-4 0  9995
2 43075  86.3962 137.9724 0001994  98.8607 261.2814 14.34217405383794
IRIDIUM 137             
1 43076U 17083G   25112.15564060  .00000023  00000+0  13097-5 0  9996
2 43076  86.3963 138.1674 0002783  98.9375 261.2136 14.34217594383823
IRIDIUM 141             
1 43077U 17083H   25112.42836795  .00000150  00000+0  46510-4 0  9990
2 43077  86.3954 137.9084 0002175  86.2271 273.9174 14.34217505383864
IRIDIUM 153             
1 43078U 17083J   25111.89216899  .00000037  00000+0  62616-5 0  9998
2 43078  86.3918 106.6095 0002050  78.1087 282.0338 14.34217618384899
IRIDIUM 131             
1 43079U 17083K   25111.50869521 -.00000012  00000+0 -11228-4 0  9990
2 43079  86.3966 138.4505 0002306  88.1412 272.0048 14.34217366383660
